ONEWEB-0086             
1 45456U 20020AJ  23232.00856389 -.00000476  00000+0 -13803-2 0  9994
2 45456  87.8894 226.0771 0001730 102.9321 257.2001 13.11416233167325
ONEWEB-0088             
1 45457U 20020AK  23232.51932772  .00000526  00000+0  14472-2 0  9999
2 45457  87.8892 225.9573 0001849  90.1854 269.9486 13.11414506167331
ONEWEB-0102             
1 47258U 20100A   23232.41684261 -.00000082  00000+0 -26200-3 0  9997
2 47258  87.9031 195.7522 0002195  80.7601 279.3775 13.12447417129394
ONEWEB-0109             
1 47259U 20100B   23232.42743501 -.00000168  00000+0 -50296-3 0  9999
2 47259  87.9028 195.7656 0001878 102.2260 257.9079 13.12442992129221
ONEWEB-0110             
1 47260U 20100C   23232.45072687 -.00000037  00000+0 -13825-3 0  9996
2 47260  87.9025 195.7282 0002242  87.2492 272.8893 13.12440707129390
ONEWEB-0111             
1 47261U 20100D   23231.87257445  .00001221  00000+0  33563-2 0  9993
2 47261  87.9010 195.8262 0002191  71.9483 288.1884 13.12459180129156
ONEWEB-0114             
1 47262U 20100E   23232.43802324  .00000413  00000+0  11134-2 0  9991
2 47262  87.9024 195.7413 0002587  75.7340 284.4076 13.12443081129180
ONEWEB-0117             
1 47263U 20100F   23232.42955220  .00000509  00000+0  13804-2 0  9997
2 47263  87.9024 195.7758 0002673  79.2799 280.8631 13.12441011129195
